{
    "object": {
        "name": "obms_postcode",
        "id": "1901249828"
    },
    "data": [
        {
            "postcodeid": "72780",
            "postcode": "822 ",
            "suburb": "LAKE BENNETT",
            "state": "NT ",
            "notes": "",
            "region": "",
            "guid": "80b5965e-1b08-4bc8-840d-3c07d315f809"
        },
        {
            "postcodeid": "72891",
            "postcode": "852 ",
            "suburb": "BAINES",
            "state": "NT ",
            "notes": "",
            "region": "",
            "guid": "7d87d826-25d9-4a42-b68d-751995e1157f"
        },
        {
            "postcodeid": "73112",
            "postcode": "906 ",
            "suburb": "WINNELLIE",
            "state": "NT ",
            "notes": "",
            "region": "",
            "guid": "ac108187-8cd2-474f-9d6a-1208fe43ea09"
        },
        {
            "postcodeid": "73446",
            "postcode": "2026",
            "suburb": "NORTH BONDI",
            "state": "NSW",
            "notes": "",
            "region": "",
            "guid": "9ad147de-88c3-4fab-9449-7d22b72e8256"
        },
        {
            "postcodeid": "73880",
            "postcode": "2171",
            "suburb": "HORNINGSEA PARK",
            "state": "NSW",
            "notes": "",
            "region": "",
            "guid": "9a755138-4f82-4085-810f-2309216c99ab"
        },
        {
            "postcodeid": "74313",
            "postcode": "2292",
            "suburb": "BROADMEADOW",
            "state": "NSW",
            "notes": "",
            "region": "",
            "guid": "ba3336d7-3b0b-409b-9808-698352540a9a"
        },
        {
            "postcodeid": "74643",
            "postcode": "2335",
            "suburb": "DALWOOD",
            "state": "NSW",
            "notes": "",
            "region": "",
            "guid": "724be4eb-1a26-40b7-a6ce-45bfd5416b49"
        },
        {
            "postcodeid": "74865",
            "postcode": "2357",
            "suburb": "ULAMAMBRI",
            "state": "NSW",
            "notes": "",
            "region": "",
            "guid": "a9d1ee0b-2cc4-4fe7-8048-765b2753e8d3"
        },
        {
            "postcodeid": "74972",
            "postcode": "2371",
            "suburb": "ROCKY CREEK",
            "state": "NSW",
            "notes": "",
            "region": "",
            "guid": "bf80e796-e23c-4aa1-8b8b-81cab7db8b89"
        },
        {
            "postcodeid": "75081",
            "postcode": "2397",
            "suburb": "THALABA",
            "state": "NSW",
            "notes": "",
            "region": "",
            "guid": "d2b1f1de-3330-427d-a965-a3f98914d975"
        },
        {
            "postcodeid": "75189",
            "postcode": "2422",
            "suburb": "CRAVEN PLATEAU",
            "state": "NSW",
            "notes": "",
            "region": "",
            "guid": "60308cb4-8be3-4495-9058-6fc0baf91657"
        },
        {
            "postcodeid": "75297",
            "postcode": "2429",
            "suburb": "CEDAR PARTY",
            "state": "NSW",
            "notes": "",
            "region": "",
            "guid": "b34dec76-b8a3-4edf-a008-8469754c65c4"
        },
        {
            "postcodeid": "75298",
            "postcode": "2429",
            "suburb": "COMBOYNE",
            "state": "NSW",
            "notes": "",
            "region": "",
            "guid": "4e24dedb-4073-471f-b9ce-52baa3cda1b9"
        },
        {
            "postcodeid": "75299",
            "postcode": "2429",
            "suburb": "DINGO FOREST",
            "state": "NSW",
            "notes": "",
            "region": "",
            "guid": "a1f0a3af-8090-4397-86b7-3bca21022d72"
        },
        {
            "postcodeid": "75300",
            "postcode": "2429",
            "suburb": "DOLLYS FLAT",
            "state": "NSW",
            "notes": "",
            "region": "",
            "guid": "1e71c863-fa9f-4e41-aa53-d778ee59d3d0"
        },
        {
            "postcodeid": "75301",
            "postcode": "2429",
            "suburb": "DYERS CROSSING",
            "state": "NSW",
            "notes": "",
            "region": "",
            "guid": "f0faa6d9-d53a-4ce3-b3f1-7dad3439533a"
        },
        {
            "postcodeid": "75302",
            "postcode": "2429",
            "suburb": "ELANDS",
            "state": "NSW",
            "notes": "",
            "region": "",
            "guid": "27047bcc-a98d-4a6b-9862-8bf092295790"
        },
        {
            "postcodeid": "75303",
            "postcode": "2429",
            "suburb": "FIREFLY",
            "state": "NSW",
            "notes": "",
            "region": "",
            "guid": "9f3d45ed-600a-40e0-b029-07b11c612ac2"
        },
        {
            "postcodeid": "75304",
            "postcode": "2429",
            "suburb": "INNES VIEW",
            "state": "NSW",
            "notes": "",
            "region": "",
            "guid": "6acf88c1-45ad-4010-a556-60edc11ab0ea"
        },
        {
            "postcodeid": "75305",
            "postcode": "2429",
            "suburb": "KARAAK FLAT",
            "state": "NSW",
            "notes": "",
            "region": "",
            "guid": "2de33230-0cff-4c9e-b095-752e44b483a9"
        }
    ]
}